CCSDS_OMM_VERS = 2.0
CREATION_DATE  = 
ORIGINATOR     = 

OBJECT_NAME    = CZ-2C R/B
OBJECT_ID      = 2022-132E
CENTER_NAME    = EARTH
REF_FRAME      = TEME
TIME_SYSTEM    = UTC
MEAN_ELEMENT_THEORY = SGP/SGP4

EPOCH          = 2026-02-15T22:59:55.657248
MEAN_MOTION    = 15.59911685
ECCENTRICITY   = .0019332
INCLINATION    = 97.2955
RA_OF_ASC_NODE = 49.6504
ARG_OF_PERICENTER = 162.7265
MEAN_ANOMALY   = 197.4654

EPHEMERIS_TYPE = 0
CLASSIFICATION_TYPE = U
NORAD_CAT_ID   = 54039
ELEMENT_SET_NO = 999
REV_AT_EPOCH   = 18698
BSTAR          = .51338E-3
MEAN_MOTION_DOT = .41728E-3
MEAN_MOTION_DDOT = 0

CCSDS_OMM_VERS = 2.0
CREATION_DATE  = 
ORIGINATOR     = 

OBJECT_NAME    = GSLV R/B
OBJECT_ID      = 2022-138AN
CENTER_NAME    = EARTH
REF_FRAME      = TEME
TIME_SYSTEM    = UTC
MEAN_ELEMENT_THEORY = SGP/SGP4

EPOCH          = 2026-02-16T06:12:48.198816
MEAN_MOTION    = 14.96607548
ECCENTRICITY   = .00199474
INCLINATION    = 87.3871
RA_OF_ASC_NODE = 173.5326
ARG_OF_PERICENTER = 225.0827
MEAN_ANOMALY   = 134.8787

EPHEMERIS_TYPE = 0
CLASSIFICATION_TYPE = U
NORAD_CAT_ID   = 54149
ELEMENT_SET_NO = 999
REV_AT_EPOCH   = 18072
BSTAR          = .31408057E-3
MEAN_MOTION_DOT = .3618E-4
MEAN_MOTION_DDOT = 0

CCSDS_OMM_VERS = 2.0
CREATION_DATE  = 
ORIGINATOR     = 

OBJECT_NAME    = XRISM
OBJECT_ID      = 2023-137A
CENTER_NAME    = EARTH
REF_FRAME      = TEME
TIME_SYSTEM    = UTC
MEAN_ELEMENT_THEORY = SGP/SGP4

EPOCH          = 2026-02-16T01:03:56.546208
MEAN_MOTION    = 15.11229187
ECCENTRICITY   = .00081747
INCLINATION    = 31.0027
RA_OF_ASC_NODE = 63.6319
ARG_OF_PERICENTER = 183.7881
MEAN_ANOMALY   = 176.2697

EPHEMERIS_TYPE = 0
CLASSIFICATION_TYPE = U
NORAD_CAT_ID   = 57800
ELEMENT_SET_NO = 999
REV_AT_EPOCH   = 13451
BSTAR          = .35556071E-3
MEAN_MOTION_DOT = .6226E-4
MEAN_MOTION_DDOT = 0

CCSDS_OMM_VERS = 2.0
CREATION_DATE  = 
ORIGINATOR     = 

OBJECT_NAME    = ACS3
OBJECT_ID      = 2024-077B
CENTER_NAME    = EARTH
REF_FRAME      = TEME
TIME_SYSTEM    = UTC
MEAN_ELEMENT_THEORY = SGP/SGP4

EPOCH          = 2026-02-16T05:58:41.552256
MEAN_MOTION    = 13.88684526
ECCENTRICITY   = .00474446
INCLINATION    = 97.2188
RA_OF_ASC_NODE = 353.1814
ARG_OF_PERICENTER = 140.6332
MEAN_ANOMALY   = 219.8296

EPHEMERIS_TYPE = 0
CLASSIFICATION_TYPE = U
NORAD_CAT_ID   = 59588
ELEMENT_SET_NO = 999
REV_AT_EPOCH   = 9122
BSTAR          = .14531756E-1
MEAN_MOTION_DOT = .17676E-3
MEAN_MOTION_DDOT = 0

CCSDS_OMM_VERS = 2.0
CREATION_DATE  = 
ORIGINATOR     = 

OBJECT_NAME    = SZ-21 MODULE
OBJECT_ID      = 2025-246C
CENTER_NAME    = EARTH
REF_FRAME      = TEME
TIME_SYSTEM    = UTC
MEAN_ELEMENT_THEORY = SGP/SGP4

EPOCH          = 2026-02-16T03:48:48.404448
MEAN_MOTION    = 15.66881556
ECCENTRICITY   = .00020652
INCLINATION    = 41.4767
RA_OF_ASC_NODE = 335.7274
ARG_OF_PERICENTER = 297.2622
MEAN_ANOMALY   = 62.8008

EPHEMERIS_TYPE = 0
CLASSIFICATION_TYPE = U
NORAD_CAT_ID   = 66515
ELEMENT_SET_NO = 999
REV_AT_EPOCH   = 1469
BSTAR          = .33419503E-3
MEAN_MOTION_DOT = .36256E-3
MEAN_MOTION_DDOT = 0

