CZ-2C R/B               
1 54039U 22132E   26046.95828307  .00041728  00000+0  51338-3 0  9995
2 54039  97.2955  49.6504 0019332 162.7265 197.4654 15.59911685186983
GSLV R/B                
1 54149U 22138AN  26047.25889119  .00003618  00000+0  31408-3 0  9997
2 54149  87.3871 173.5326 0019947 225.0827 134.8787 14.96607548180728
XRISM                   
1 57800U 23137A   26047.04440447  .00006226  00000+0  35556-3 0  9994
2 57800  31.0027  63.6319 0008174 183.7881 176.2697 15.11229187134518
ACS3                    
1 59588U 24077B   26047.24909204  .00017676  00000+0  14532-1 0  9996
2 59588  97.2188 353.1814 0047444 140.6332 219.8296 13.88684526 91221
SZ-21 MODULE            
1 66515U 25246C   26047.15889357  .00036256  00000+0  33420-3 0  9993
2 66515  41.4767 335.7274 0002065 297.2622  62.8008 15.66881556 14693
